<?xml version="1.0" encoding="UTF-8"?>
<kml xmlns="http://www.opengis.net/kml/2.2"><Document>
<Placemark><name>VENTURA</name><description>MMSI: 310562000&#10;Távolság: 13.6 km&#10;Irány: délre&#10;Forrás: AIS</description><Point><coordinates>-16.12015,28.41488,0</coordinates></Point></Placemark>
<Placemark><name>SEA ARROW</name><description>MMSI: 255916259&#10;Távolság: 208.64 km&#10;Irány: délre&#10;Forrás: AIS</description><Point><coordinates>-15.584471666666667,26.686528333333335,0</coordinates></Point></Placemark>
<Placemark><name>SEASPAN PRIDE</name><description>MMSI: 563286700&#10;Távolság: 449.45 km&#10;Irány: délre&#10;Forrás: AIS</description><Point><coordinates>-16.99149166666667,24.482918333333334,0</coordinates></Point></Placemark>
<Placemark><name>MSC SOFIA PAZ</name><description>MMSI: 636016306&#10;Távolság: 240.59 km&#10;Irány: délre&#10;Forrás: AIS</description><Point><coordinates>-15.868886666666667,26.331521666666667,0</coordinates></Point></Placemark>
<Placemark><name>CONTSHIP NEW</name><description>MMSI: 209345000&#10;Távolság: 218.62 km&#10;Irány: délre&#10;Forrás: AIS</description><Point><coordinates>-14.184003333333333,27.720368333333333,0</coordinates></Point></Placemark>
<Placemark><name>SEA VALIANT</name><description>MMSI: 538009850&#10;Távolság: 95.33 km&#10;Irány: délre&#10;Forrás: AIS</description><Point><coordinates>-15.355093333333334,28.121001666666665,0</coordinates></Point></Placemark>
<Placemark><name>ISABELLA B</name><description>MMSI: 255805652&#10;Távolság: 21.27 km&#10;Irány: északra&#10;Forrás: AIS</description><Point><coordinates>-16.350246666666667,28.636593333333334,0</coordinates></Point></Placemark>
<Placemark><name>ANTEQUERA P</name><description>MMSI: 225992805&#10;Távolság: 2.63 km&#10;Irány: északra&#10;Forrás: AIS</description><Point><coordinates>-16.227145,28.48717333333333,0</coordinates></Point></Placemark>
<Placemark><name>OWL 5</name><description>MMSI: 538003630&#10;Távolság: 362.98 km&#10;Irány: délre&#10;Forrás: AIS</description><Point><coordinates>-16.152401666666666,25.205985,0</coordinates></Point></Placemark>
<Placemark><name>MIGUEL DE CERVANTES</name><description>MMSI: 224783000&#10;Távolság: 0.79 km&#10;Irány: délre&#10;Forrás: AIS</description><Point><coordinates>-16.24439333333333,28.46219,0</coordinates></Point></Placemark>
<Placemark><name>ATLANTICA DELTA</name><description>MMSI: 351481000&#10;Távolság: 1.21 km&#10;Irány: délre&#10;Forrás: AIS</description><Point><coordinates>-16.246248333333334,28.45852,0</coordinates></Point></Placemark>
<Placemark><name>AL AWAM</name><description>MMSI: 654017500&#10;Távolság: 89.37 km&#10;Irány: délre&#10;Forrás: AIS</description><Point><coordinates>-15.407443333333333,28.14914333333333,0</coordinates></Point></Placemark>
<Placemark><name>PANAMA 100</name><description>MMSI: 248637000&#10;Távolság: 89.18 km&#10;Irány: délre&#10;Forrás: AIS</description><Point><coordinates>-15.414449999999999,28.139499999999998,0</coordinates></Point></Placemark>
<Placemark><name>ATWOOD ADMIRAL</name><description>MMSI: 538005087&#10;Távolság: 90.71 km&#10;Irány: délre&#10;Forrás: AIS</description><Point><coordinates>-15.405563333333333,28.123696666666667,0</coordinates></Point></Placemark>
<Placemark><name>BAHIA CARGO</name><description>MMSI: 224787000&#10;Távolság: 90.63 km&#10;Irány: délre&#10;Forrás: AIS</description><Point><coordinates>-15.410115,28.116991666666667,0</coordinates></Point></Placemark>
<Placemark><name>MSC ZONDA III</name><description>MMSI: 255802470&#10;Távolság: 47.49 km&#10;Irány: délre&#10;Forrás: AIS</description><Point><coordinates>-16.289751666666668,28.044036666666667,0</coordinates></Point></Placemark>
<Placemark><name>HANSA OSLO</name><description>MMSI: 538090623&#10;Távolság: 290.42 km&#10;Irány: délre&#10;Forrás: AIS</description><Point><coordinates>-15.928716666666666,25.872695,0</coordinates></Point></Placemark>
<Placemark><name>VOLCAN DE TAIDIA</name><description>MMSI: 224984000&#10;Távolság: 90.43 km&#10;Irány: délre&#10;Forrás: AIS</description><Point><coordinates>-15.396566666666667,28.147173333333335,0</coordinates></Point></Placemark>
<Placemark><name>KARPATHOS</name><description>MMSI: 209987000&#10;Távolság: 2.2 km&#10;Irány: északra&#10;Forrás: AIS</description><Point><coordinates>-16.229235,28.483566666666665,0</coordinates></Point></Placemark>
<Placemark><name>BRENAS CARGO</name><description>MMSI: 224823000&#10;Távolság: 167.14 km&#10;Irány: délre&#10;Forrás: AIS</description><Point><coordinates>-14.620646666666666,28.00874,0</coordinates></Point></Placemark>
<Placemark><name>CIUDAD DE IBIZA</name><description>MMSI: 224498000&#10;Távolság: 0.29 km&#10;Irány: északra&#10;Forrás: AIS</description><Point><coordinates>-16.242248333333333,28.47069,0</coordinates></Point></Placemark>
<Placemark><name>AAL HOUSTON</name><description>MMSI: 255915733&#10;Távolság: 467.23 km&#10;Irány: délre&#10;Forrás: AIS</description><Point><coordinates>-17.14961333333333,24.346273333333333,0</coordinates></Point></Placemark>
<Placemark><name>ROCKFISH</name><description>MMSI: 224302000&#10;Távolság: 88.19 km&#10;Irány: délre&#10;Forrás: AIS</description><Point><coordinates>-15.42296,28.14446333333333,0</coordinates></Point></Placemark>
<Placemark><name>HOEGH TRIDENT</name><description>MMSI: 257713000&#10;Távolság: 474.96 km&#10;Irány: délre&#10;Forrás: AIS</description><Point><coordinates>-16.293895,24.198095000000002,0</coordinates></Point></Placemark>
<Placemark><name>VB BALEAR</name><description>MMSI: 224494000&#10;Távolság: 0.5 km&#10;Irány: délre&#10;Forrás: AIS</description><Point><coordinates>-16.244551666666666,28.464835,0</coordinates></Point></Placemark>
<Placemark><name>VB TENERIFE</name><description>MMSI: 224474000&#10;Távolság: 2.2 km&#10;Irány: északra&#10;Forrás: AIS</description><Point><coordinates>-16.231,28.484933333333334,0</coordinates></Point></Placemark>
<Placemark><name>BENTAYGA CARGO</name><description>MMSI: 225462000&#10;Távolság: 3.59 km&#10;Irány: délre&#10;Forrás: AIS</description><Point><coordinates>-16.21057,28.457636666666666,0</coordinates></Point></Placemark>
<Placemark><name>BAJAMAR EXPRESS</name><description>MMSI: 224131000&#10;Távolság: 0.15 km&#10;Irány: északra&#10;Forrás: AIS</description><Point><coordinates>-16.246095,28.469941666666667,0</coordinates></Point></Placemark>
<Placemark><name>VOLCAN DE TAGORO</name><description>MMSI: 224781000&#10;Távolság: 0.07 km&#10;Irány: északra&#10;Forrás: AIS</description><Point><coordinates>-16.244281666666666,28.469771666666666,0</coordinates></Point></Placemark>
<Placemark><name>BOS PRINCESS</name><description>MMSI: 253000122&#10;Távolság: 3.28 km&#10;Irány: északra&#10;Forrás: AIS</description><Point><coordinates>-16.21976,28.488916666666668,0</coordinates></Point></Placemark>
<Placemark><name>CAP MEJEAN</name><description>MMSI: 228296700&#10;Távolság: 5.59 km&#10;Irány: északra&#10;Forrás: AIS</description><Point><coordinates>-16.191465,28.487613333333336,0</coordinates></Point></Placemark>
</Document></kml>